reference,address,zip_code,city,country,manager_name
1,10 Rue La bruyère,75009,Paris,France,Martin Faure
2,40 Rue René Clair,75018,Paris,France,Martin Faure
3,41 Rue René Clair3,75027,Paris,France,Martin Faure
4,42 Rue René Clair4,75036,Paris,France,Martin Faure
5,43 Rue René Clair5,75045,Paris,France,Félix Faure
6,44 Rue René Clair6,75054,Paris,France,Félix Faure
7,45 Rue René Clair7,75063,Paris,France,Félix Faure
8,46 Rue René Clair8,75072,Paris,France,Félix Faure
9,47 Rue René Clair9,75081,Paris,France,Félix Faure
10,48 Rue René Clair10,75090,Paris,France,Gabriel Faure
11,49 Rue René Clair11,75099,Paris,France,Gabriel Faure
12,50 Rue René Clair12,75108,Paris,France,Gabriel Faure
13,51 Rue René Clair13,75117,Paris,France,Gabriel Faure
14,52 Rue René Clair14,75126,Paris,France,Gabriel Faure
15,53 Rue René Clair15,75135,Paris,France,Gabriel Faure
16,54 Rue René Clair16,75144,Paris,France,Gabriel Faure
17,55 Rue René Clair17,75153,Paris,France,Gabriel Faure
18,56 Rue René Clair18,75162,Paris,France,Gabriel Faure
19,57 Rue René Clair19,75171,Paris,France,Gabriel Faure
20,58 Rue René Clair20,75180,Paris,France,Gabriel Faure
21,59 Rue René Clair21,75189,Paris,France,Gabriel Faure
22,60 Rue René Clair22,75198,Paris,France,Gabriel Faure
23,61 Rue René Clair23,75207,Paris,France,Gabriel Faure
24,62 Rue René Clair24,75216,Paris,France,Gabriel Faure
25,63 Rue René Clair25,75225,Paris,France,Gabriel Faure
26,64 Rue René Clair26,75234,Paris,France,Gabriel Faure
27,65 Rue René Clair27,75243,Paris,France,Gabriel Faure
28,66 Rue René Clair28,75252,Paris,France,Gabriel Faure
29,67 Rue René Clair29,75261,Paris,France,Gabriel Faure
30,68 Rue René Clair30,75270,Paris,France,Gabriel Faure
31,69 Rue René Clair31,75279,Paris,France,Gabriel Faure
32,70 Rue René Clair32,75288,Paris,France,Gabriel Faure
33,71 Rue René Clair33,75297,Paris,France,Jean Rochefort
34,72 Rue René Clair34,75306,Paris,France,Jean Rochefort
35,73 Rue René Clair35,75315,Paris,France,Jean Rochefort
36,74 Rue René Clair36,75324,Paris,France,Jean Rochefort
37,75 Rue René Clair37,75333,Paris,France,Jean Rochefort
38,76 Rue René Clair38,75342,Paris,France,Jean Rochefort
39,77 Rue René Clair39,75351,Paris,France,Jean Rochefort
40,78 Rue René Clair40,75360,Paris,France,Jean Rochefort
41,79 Rue René Clair41,75369,Paris,France,Jean Rochefort
42,80 Rue René Clair42,75378,Paris,France,Jean Rochefort
43,81 Rue René Clair43,75387,Paris,France,Jean Rochefort
44,82 Rue René Clair44,75396,Paris,France,Jean Rochefort
45,83 Rue René Clair45,75405,Paris,France,Jean Rochefort
46,84 Rue René Clair46,75414,Paris,France,Jean Rochefort
47,85 Rue René Clair47,75423,Paris,France,Jean Rochefort
48,86 Rue René Clair48,75432,Paris,France,Jean Rochefort
49,87 Rue René Clair49,75441,Paris,France,Jean Rochefort
50,88 Rue René Clair50,75450,Paris,France,Jean Rochefort
51,89 Rue René Clair51,75459,Paris,France,Jean Rochefort
52,90 Rue René Clair52,75468,Paris,France,Nelson Monfort
53,91 Rue René Clair53,75477,Paris,France,Nelson Monfort
54,92 Rue René Clair54,75486,Paris,France,Nelson Monfort
55,93 Rue René Clair55,75495,Paris,France,Nelson Monfort
56,94 Rue René Clair56,75504,Paris,France,Nelson Monfort
57,95 Rue René Clair57,75513,Paris,France,Nelson Monfort
58,96 Rue René Clair58,75522,Paris,France,Nelson Monfort
59,97 Rue René Clair59,75531,Paris,France,Nelson Monfort
60,98 Rue René Clair60,75540,Paris,France,Nelson Monfort
61,99 Rue René Clair61,75549,Paris,France,Nelson Monfort
62,100 Rue René Clair62,75558,Paris,France,Nelson Monfort
63,101 Rue René Clair63,75567,Paris,France,Nelson Monfort
64,102 Rue René Clair64,75576,Paris,France,Nelson Monfort
65,103 Rue René Clair65,75585,Paris,France,Nelson Monfort
66,104 Rue René Clair66,75594,Paris,France,Nelson Monfort
67,105 Rue René Clair67,75603,Paris,France,Nelson Monfort
68,106 Rue René Clair68,75612,Paris,France,Nelson Monfort
69,107 Rue René Clair69,75621,Paris,France,Nelson Monfort
70,108 Rue René Clair70,75630,Paris,France,Nelson Monfort
71,109 Rue René Clair71,75639,Paris,France,Nelson Monfort
72,110 Rue René Clair72,75648,Paris,France,Nelson Monfort
73,111 Rue René Clair73,75657,Paris,France,Nelson Monfort
74,112 Rue René Clair74,75666,Paris,France,Lavelinge Faure
75,113 Rue René Clair75,75675,Paris,France,Lavelinge Faure
76,114 Rue René Clair76,75684,Paris,France,Lavelinge Faure
77,115 Rue René Clair77,75693,Paris,France,Lavelinge Faure
78,116 Rue René Clair78,75702,Paris,France,Lavelinge Faure
79,117 Rue René Clair79,75711,Paris,France,Lavelinge Faure
80,118 Rue René Clair80,75720,Paris,France,Lavelinge Faure
81,119 Rue René Clair81,75729,Paris,France,Lavelinge Faure
82,120 Rue René Clair82,75738,Paris,France,Lavelinge Faure
83,121 Rue René Clair83,75747,Paris,France,Lavelinge Faure
84,122 Rue René Clair84,75756,Paris,France,Lavelinge Faure
85,123 Rue René Clair85,75765,Paris,France,Lavelinge Faure
86,124 Rue René Clair86,75774,Paris,France,Lavelinge Faure
87,125 Rue René Clair87,75783,Paris,France,Lavelinge Faure
88,126 Rue René Clair88,75792,Paris,France,Lavelinge Faure
89,127 Rue René Clair89,75801,Paris,France,Lavelinge Faure
90,128 Rue René Clair90,75810,Paris,France,Lavelinge Faure
91,129 Rue René Clair91,75819,Paris,France,Lavelinge Faure
92,130 Rue René Clair92,75828,Paris,France,Lavelinge Faure
93,131 Rue René Clair93,75837,Paris,France,Lavelinge Faure
94,132 Rue René Clair94,75846,Paris,France,Lavelinge Faure
95,133 Rue René Clair95,75855,Paris,France,Lavelinge Faure
96,134 Rue René Clair96,75864,Paris,France,Lavelinge Faure
97,135 Rue René Clair97,75873,Paris,France,Lavelinge Faure
98,136 Rue René Clair98,75882,Paris,France,Lavelinge Faure
99,137 Rue René Clair99,75891,Paris,France,Lavelinge Faure
100,138 Rue René Clair100,75900,Paris,France,Lavelinge Faure
