reference,address,zip_code,city,country,manager_name
1,address1,75000,Paris,France,Martin Faure
2,address2,75001,Paris,France,Martin Faure
3,address3,75002,Paris,France,Martin Faure
4,address4,75003,Paris,France,Martin Faure
5,address5,75004,Paris,France,Martin Faure
6,address6,75005,Paris,France,Martin Faure
7,address7,75006,Paris,France,Martin Faure
8,address8,75007,Paris,France,Martin Faure
9,address9,75008,Paris,France,Martin Faure
10,address10,75009,Paris,France,Martin Faure
11,address11,75010,Paris,France,Martin Faure
12,address12,75011,Paris,France,Martin Faure
13,address13,75012,Paris,France,Martin Faure
14,address14,75013,Paris,France,Martin Faure
15,address15,75014,Paris,France,Martin Faure
16,address16,75015,Paris,France,Martin Faure
17,address17,75016,Paris,France,Martin Faure
18,address18,75017,Paris,France,Martin Faure
19,address19,75018,Paris,France,Martin Faure
20,address20,75019,Paris,France,Martin Faure
21,address21,75020,Paris,France,Martin Faure
22,address22,75021,Paris,France,Martin Faure
23,address23,75022,Paris,France,Martin Faure
24,address24,75023,Paris,France,Martin Faure
25,address25,75024,Paris,France,Martin Faure
26,address26,75025,Paris,France,Martin Faure
27,address27,75026,Paris,France,Martin Faure
28,address28,75027,Paris,France,Martin Faure
29,address29,75028,Paris,France,Martin Faure
30,address30,75029,Paris,France,Martin Faure
31,address31,75030,Paris,France,Martin Faure
32,address32,75031,Paris,France,Martin Faure
33,address33,75032,Paris,France,Martin Faure
34,address34,75033,Paris,France,Martin Faure
35,address35,75034,Paris,France,Martin Faure
36,address36,75035,Paris,France,Martin Faure
37,address37,75036,Paris,France,Martin Faure
38,address38,75037,Paris,France,Martin Faure
39,address39,75038,Paris,France,Martin Faure
40,address40,75039,Paris,France,Martin Faure
41,address41,75040,Paris,France,Martin Faure
42,address42,75041,Paris,France,Martin Faure
43,address43,75042,Paris,France,Martin Faure
44,address44,75043,Paris,France,Martin Faure
45,address45,75044,Paris,France,Martin Faure
46,address46,75045,Paris,France,Martin Faure
47,address47,75046,Paris,France,Martin Faure
48,address48,75047,Paris,France,Martin Faure
49,address49,75048,Paris,France,Martin Faure
50,address50,75049,Paris,France,Martin Faure
51,address51,75050,Paris,France,Martin Faure
52,address52,75051,Paris,France,Martin Faure
53,address53,75052,Paris,France,Martin Faure
54,address54,75053,Paris,France,Martin Faure
55,address55,75054,Paris,France,Martin Faure
56,address56,75055,Paris,France,Martin Faure
57,address57,75056,Paris,France,Martin Faure
58,address58,75057,Paris,France,Martin Faure
59,address59,75058,Paris,France,Martin Faure
60,address60,75059,Paris,France,Martin Faure
61,address61,75060,Paris,France,Martin Faure
62,address62,75061,Paris,France,Martin Faure
63,address63,75062,Paris,France,Martin Faure
64,address64,75063,Paris,France,Martin Faure
65,address65,75064,Paris,France,Martin Faure
66,address66,75065,Paris,France,Martin Faure
67,address67,75066,Paris,France,Martin Faure
68,address68,75067,Paris,France,Martin Faure
69,address69,75068,Paris,France,Martin Faure
70,address70,75069,Paris,France,Martin Faure
71,address71,75070,Paris,France,Martin Faure
72,address72,75071,Paris,France,Martin Faure
73,address73,75072,Paris,France,Martin Faure
74,address74,75073,Paris,France,Martin Faure
75,address75,75074,Paris,France,Martin Faure
76,address76,75075,Paris,France,Martin Faure
77,address77,75076,Paris,France,Martin Faure
78,address78,75077,Paris,France,Martin Faure
79,address79,75078,Paris,France,Martin Faure
80,address80,75079,Paris,France,Martin Faure
81,address81,75080,Paris,France,Martin Faure
82,address82,75081,Paris,France,Martin Faure
83,address83,75082,Paris,France,Martin Faure
84,address84,75083,Paris,France,Martin Faure
85,address85,75084,Paris,France,Martin Faure
86,address86,75085,Paris,France,Martin Faure
87,address87,75086,Paris,France,Martin Faure
88,address88,75087,Paris,France,Martin Faure
89,address89,75088,Paris,France,Martin Faure
90,address90,75089,Paris,France,Martin Faure
91,address91,75090,Paris,France,Martin Faure
92,address92,75091,Paris,France,Martin Faure
93,address93,75092,Paris,France,Martin Faure
94,address94,75093,Paris,France,Martin Faure
95,address95,75094,Paris,France,Martin Faure
96,address96,75095,Paris,France,Martin Faure
97,address97,75096,Paris,France,Martin Faure
98,address98,75097,Paris,France,Martin Faure
99,address99,75098,Paris,France,Martin Faure
100,address100,75099,Paris,France,Martin Faure
101,address101,75100,Paris,France,Martin Faure
102,address102,75101,Paris,France,Martin Faure
103,address103,75102,Paris,France,Martin Faure
104,address104,75103,Paris,France,Martin Faure
105,address105,75104,Paris,France,Martin Faure
106,address106,75105,Paris,France,Martin Faure
107,address107,75106,Paris,France,Martin Faure
108,address108,75107,Paris,France,Martin Faure
109,address109,75108,Paris,France,Martin Faure
110,address110,75109,Paris,France,Martin Faure
111,address111,75110,Paris,France,Martin Faure
112,address112,75111,Paris,France,Martin Faure
113,address113,75112,Paris,France,Martin Faure
114,address114,75113,Paris,France,Martin Faure
115,address115,75114,Paris,France,Martin Faure
116,address116,75115,Paris,France,Martin Faure
117,address117,75116,Paris,France,Martin Faure
118,address118,75117,Paris,France,Martin Faure
119,address119,75118,Paris,France,Martin Faure
120,address120,75119,Paris,France,Martin Faure
121,address121,75120,Paris,France,Martin Faure
122,address122,75121,Paris,France,Martin Faure
123,address123,75122,Paris,France,Martin Faure
124,address124,75123,Paris,France,Martin Faure
125,address125,75124,Paris,France,Martin Faure
126,address126,75125,Paris,France,Martin Faure
127,address127,75126,Paris,France,Martin Faure
128,address128,75127,Paris,France,Martin Faure
129,address129,75128,Paris,France,Martin Faure
130,address130,75129,Paris,France,Martin Faure
131,address131,75130,Paris,France,Martin Faure
132,address132,75131,Paris,France,Martin Faure
133,address133,75132,Paris,France,Martin Faure
134,address134,75133,Paris,France,Martin Faure
135,address135,75134,Paris,France,Martin Faure
136,address136,75135,Paris,France,Martin Faure
137,address137,75136,Paris,France,Martin Faure
138,address138,75137,Paris,France,Martin Faure
139,address139,75138,Paris,France,Martin Faure
140,address140,75139,Paris,France,Martin Faure
141,address141,75140,Paris,France,Martin Faure
142,address142,75141,Paris,France,Martin Faure
143,address143,75142,Paris,France,Martin Faure
144,address144,75143,Paris,France,Martin Faure
145,address145,75144,Paris,France,Martin Faure
146,address146,75145,Paris,France,Martin Faure
147,address147,75146,Paris,France,Martin Faure
148,address148,75147,Paris,France,Martin Faure
149,address149,75148,Paris,France,Martin Faure
150,address150,75149,Paris,France,Martin Faure
151,address151,75150,Paris,France,Martin Faure
152,address152,75151,Paris,France,Martin Faure
153,address153,75152,Paris,France,Martin Faure
154,address154,75153,Paris,France,Martin Faure
155,address155,75154,Paris,France,Martin Faure
156,address156,75155,Paris,France,Martin Faure
157,address157,75156,Paris,France,Martin Faure
158,address158,75157,Paris,France,Martin Faure
159,address159,75158,Paris,France,Martin Faure
160,address160,75159,Paris,France,Martin Faure
161,address161,75160,Paris,France,Martin Faure
162,address162,75161,Paris,France,Martin Faure
163,address163,75162,Paris,France,Martin Faure
164,address164,75163,Paris,France,Martin Faure
165,address165,75164,Paris,France,Martin Faure
166,address166,75165,Paris,France,Martin Faure
167,address167,75166,Paris,France,Martin Faure
168,address168,75167,Paris,France,Martin Faure
169,address169,75168,Paris,France,Martin Faure
170,address170,75169,Paris,France,Martin Faure
171,address171,75170,Paris,France,Martin Faure
172,address172,75171,Paris,France,Martin Faure
173,address173,75172,Paris,France,Martin Faure
174,address174,75173,Paris,France,Martin Faure
175,address175,75174,Paris,France,Martin Faure
176,address176,75175,Paris,France,Martin Faure
177,address177,75176,Paris,France,Martin Faure
178,address178,75177,Paris,France,Martin Faure
179,address179,75178,Paris,France,Martin Faure
180,address180,75179,Paris,France,Martin Faure
181,address181,75180,Paris,France,Martin Faure
182,address182,75181,Paris,France,Martin Faure
183,address183,75182,Paris,France,Martin Faure
184,address184,75183,Paris,France,Martin Faure
185,address185,75184,Paris,France,Martin Faure
186,address186,75185,Paris,France,Martin Faure
187,address187,75186,Paris,France,Martin Faure
188,address188,75187,Paris,France,Martin Faure
189,address189,75188,Paris,France,Martin Faure
190,address190,75189,Paris,France,Martin Faure
191,address191,75190,Paris,France,Martin Faure
192,address192,75191,Paris,France,Martin Faure
193,address193,75192,Paris,France,Martin Faure
194,address194,75193,Paris,France,Martin Faure
195,address195,75194,Paris,France,Martin Faure
196,address196,75195,Paris,France,Martin Faure
197,address197,75196,Paris,France,Martin Faure
198,address198,75197,Paris,France,Martin Faure
199,address199,75198,Paris,France,Martin Faure
200,address200,75199,Paris,France,Martin Faure
201,address201,75200,Paris,France,Martin Faure
202,address202,75201,Paris,France,Martin Faure
203,address203,75202,Paris,France,Martin Faure
204,address204,75203,Paris,France,Martin Faure
205,address205,75204,Paris,France,Martin Faure
206,address206,75205,Paris,France,Martin Faure
207,address207,75206,Paris,France,Martin Faure
208,address208,75207,Paris,France,Martin Faure
209,address209,75208,Paris,France,Martin Faure
210,address210,75209,Paris,France,Martin Faure
211,address211,75210,Paris,France,Martin Faure
212,address212,75211,Paris,France,Martin Faure
213,address213,75212,Paris,France,Martin Faure
214,address214,75213,Paris,France,Martin Faure
215,address215,75214,Paris,France,Martin Faure
216,address216,75215,Paris,France,Martin Faure
217,address217,75216,Paris,France,Martin Faure
218,address218,75217,Paris,France,Martin Faure
219,address219,75218,Paris,France,Martin Faure
220,address220,75219,Paris,France,Martin Faure
221,address221,75220,Paris,France,Martin Faure
222,address222,75221,Paris,France,Martin Faure
223,address223,75222,Paris,France,Martin Faure
224,address224,75223,Paris,France,Martin Faure
225,address225,75224,Paris,France,Martin Faure
226,address226,75225,Paris,France,Martin Faure
227,address227,75226,Paris,France,Martin Faure
228,address228,75227,Paris,France,Martin Faure
229,address229,75228,Paris,France,Martin Faure
230,address230,75229,Paris,France,Martin Faure
231,address231,75230,Paris,France,Martin Faure
232,address232,75231,Paris,France,Martin Faure
233,address233,75232,Paris,France,Martin Faure
234,address234,75233,Paris,France,Martin Faure
235,address235,75234,Paris,France,Martin Faure
236,address236,75235,Paris,France,Martin Faure
237,address237,75236,Paris,France,Martin Faure
238,address238,75237,Paris,France,Martin Faure
239,address239,75238,Paris,France,Martin Faure
240,address240,75239,Paris,France,Martin Faure
241,address241,75240,Paris,France,Martin Faure
242,address242,75241,Paris,France,Martin Faure
243,address243,75242,Paris,France,Martin Faure
244,address244,75243,Paris,France,Martin Faure
245,address245,75244,Paris,France,Martin Faure
246,address246,75245,Paris,France,Martin Faure
247,address247,75246,Paris,France,Martin Faure
248,address248,75247,Paris,France,Martin Faure
249,address249,75248,Paris,France,Martin Faure
250,address250,75249,Paris,France,Martin Faure
251,address251,75250,Paris,France,Martin Faure
252,address252,75251,Paris,France,Martin Faure
253,address253,75252,Paris,France,Martin Faure
254,address254,75253,Paris,France,Martin Faure
255,address255,75254,Paris,France,Martin Faure
256,address256,75255,Paris,France,Martin Faure
257,address257,75256,Paris,France,Martin Faure
258,address258,75257,Paris,France,Martin Faure
259,address259,75258,Paris,France,Martin Faure
260,address260,75259,Paris,France,Martin Faure
261,address261,75260,Paris,France,Martin Faure
262,address262,75261,Paris,France,Martin Faure
263,address263,75262,Paris,France,Martin Faure
264,address264,75263,Paris,France,Martin Faure
265,address265,75264,Paris,France,Martin Faure
266,address266,75265,Paris,France,Martin Faure
267,address267,75266,Paris,France,Martin Faure
268,address268,75267,Paris,France,Martin Faure
269,address269,75268,Paris,France,Martin Faure
270,address270,75269,Paris,France,Martin Faure
271,address271,75270,Paris,France,Martin Faure
272,address272,75271,Paris,France,Martin Faure
273,address273,75272,Paris,France,Martin Faure
274,address274,75273,Paris,France,Martin Faure
275,address275,75274,Paris,France,Martin Faure
276,address276,75275,Paris,France,Martin Faure
277,address277,75276,Paris,France,Martin Faure
278,address278,75277,Paris,France,Martin Faure
279,address279,75278,Paris,France,Martin Faure
280,address280,75279,Paris,France,Martin Faure
281,address281,75280,Paris,France,Martin Faure
282,address282,75281,Paris,France,Martin Faure
283,address283,75282,Paris,France,Martin Faure
284,address284,75283,Paris,France,Martin Faure
285,address285,75284,Paris,France,Martin Faure
286,address286,75285,Paris,France,Martin Faure
287,address287,75286,Paris,France,Martin Faure
288,address288,75287,Paris,France,Martin Faure
289,address289,75288,Paris,France,Martin Faure
290,address290,75289,Paris,France,Martin Faure
291,address291,75290,Paris,France,Martin Faure
292,address292,75291,Paris,France,Martin Faure
293,address293,75292,Paris,France,Martin Faure
294,address294,75293,Paris,France,Martin Faure
295,address295,75294,Paris,France,Martin Faure
296,address296,75295,Paris,France,Martin Faure
297,address297,75296,Paris,France,Martin Faure
298,address298,75297,Paris,France,Martin Faure
299,address299,75298,Paris,France,Martin Faure
300,address300,75299,Paris,France,Martin Faure
301,address301,75300,Paris,France,Martin Faure
302,address302,75301,Paris,France,Martin Faure
303,address303,75302,Paris,France,Martin Faure
304,address304,75303,Paris,France,Martin Faure
305,address305,75304,Paris,France,Martin Faure
306,address306,75305,Paris,France,Martin Faure
307,address307,75306,Paris,France,Martin Faure
308,address308,75307,Paris,France,Martin Faure
309,address309,75308,Paris,France,Martin Faure
310,address310,75309,Paris,France,Martin Faure
311,address311,75310,Paris,France,Martin Faure
312,address312,75311,Paris,France,Martin Faure
313,address313,75312,Paris,France,Martin Faure
314,address314,75313,Paris,France,Martin Faure
315,address315,75314,Paris,France,Martin Faure
316,address316,75315,Paris,France,Martin Faure
317,address317,75316,Paris,France,Martin Faure
318,address318,75317,Paris,France,Martin Faure
319,address319,75318,Paris,France,Martin Faure
320,address320,75319,Paris,France,Martin Faure
321,address321,75320,Paris,France,Martin Faure
322,address322,75321,Paris,France,Martin Faure
323,address323,75322,Paris,France,Martin Faure
324,address324,75323,Paris,France,Martin Faure
325,address325,75324,Paris,France,Martin Faure
326,address326,75325,Paris,France,Martin Faure
327,address327,75326,Paris,France,Martin Faure
328,address328,75327,Paris,France,Martin Faure
329,address329,75328,Paris,France,Martin Faure
330,address330,75329,Paris,France,Martin Faure
331,address331,75330,Paris,France,Martin Faure
332,address332,75331,Paris,France,Martin Faure
333,address333,75332,Paris,France,Martin Faure
334,address334,75333,Paris,France,Martin Faure
335,address335,75334,Paris,France,Martin Faure
336,address336,75335,Paris,France,Martin Faure
337,address337,75336,Paris,France,Martin Faure
338,address338,75337,Paris,France,Martin Faure
339,address339,75338,Paris,France,Martin Faure
340,address340,75339,Paris,France,Martin Faure
341,address341,75340,Paris,France,Martin Faure
342,address342,75341,Paris,France,Martin Faure
343,address343,75342,Paris,France,Martin Faure
344,address344,75343,Paris,France,Martin Faure
345,address345,75344,Paris,France,Martin Faure
346,address346,75345,Paris,France,Martin Faure
347,address347,75346,Paris,France,Martin Faure
348,address348,75347,Paris,France,Martin Faure
349,address349,75348,Paris,France,Martin Faure
350,address350,75349,Paris,France,Martin Faure
351,address351,75350,Paris,France,Martin Faure
352,address352,75351,Paris,France,Martin Faure
353,address353,75352,Paris,France,Martin Faure
354,address354,75353,Paris,France,Martin Faure
355,address355,75354,Paris,France,Martin Faure
356,address356,75355,Paris,France,Martin Faure
357,address357,75356,Paris,France,Martin Faure
358,address358,75357,Paris,France,Martin Faure
359,address359,75358,Paris,France,Martin Faure
360,address360,75359,Paris,France,Martin Faure
361,address361,75360,Paris,France,Martin Faure
362,address362,75361,Paris,France,Martin Faure
363,address363,75362,Paris,France,Martin Faure
364,address364,75363,Paris,France,Martin Faure
365,address365,75364,Paris,France,Martin Faure
366,address366,75365,Paris,France,Martin Faure
367,address367,75366,Paris,France,Martin Faure
368,address368,75367,Paris,France,Martin Faure
369,address369,75368,Paris,France,Martin Faure
370,address370,75369,Paris,France,Martin Faure
371,address371,75370,Paris,France,Martin Faure
372,address372,75371,Paris,France,Martin Faure
373,address373,75372,Paris,France,Martin Faure
374,address374,75373,Paris,France,Martin Faure
375,address375,75374,Paris,France,Martin Faure
376,address376,75375,Paris,France,Martin Faure
377,address377,75376,Paris,France,Martin Faure
378,address378,75377,Paris,France,Martin Faure
379,address379,75378,Paris,France,Martin Faure
380,address380,75379,Paris,France,Martin Faure
381,address381,75380,Paris,France,Martin Faure
382,address382,75381,Paris,France,Martin Faure
383,address383,75382,Paris,France,Martin Faure
384,address384,75383,Paris,France,Martin Faure
385,address385,75384,Paris,France,Martin Faure
386,address386,75385,Paris,France,Martin Faure
387,address387,75386,Paris,France,Martin Faure
388,address388,75387,Paris,France,Martin Faure
389,address389,75388,Paris,France,Martin Faure
390,address390,75389,Paris,France,Martin Faure
391,address391,75390,Paris,France,Martin Faure
392,address392,75391,Paris,France,Martin Faure
393,address393,75392,Paris,France,Martin Faure
394,address394,75393,Paris,France,Martin Faure
395,address395,75394,Paris,France,Martin Faure
396,address396,75395,Paris,France,Martin Faure
397,address397,75396,Paris,France,Martin Faure
398,address398,75397,Paris,France,Martin Faure
399,address399,75398,Paris,France,Martin Faure
400,address400,75399,Paris,France,Martin Faure
401,address401,75400,Paris,France,Martin Faure
402,address402,75401,Paris,France,Martin Faure
403,address403,75402,Paris,France,Martin Faure
404,address404,75403,Paris,France,Martin Faure
405,address405,75404,Paris,France,Martin Faure
406,address406,75405,Paris,France,Martin Faure
407,address407,75406,Paris,France,Martin Faure
408,address408,75407,Paris,France,Martin Faure
409,address409,75408,Paris,France,Martin Faure
410,address410,75409,Paris,France,Martin Faure
411,address411,75410,Paris,France,Martin Faure
412,address412,75411,Paris,France,Martin Faure
413,address413,75412,Paris,France,Martin Faure
414,address414,75413,Paris,France,Martin Faure
415,address415,75414,Paris,France,Martin Faure
416,address416,75415,Paris,France,Martin Faure
417,address417,75416,Paris,France,Martin Faure
418,address418,75417,Paris,France,Martin Faure
419,address419,75418,Paris,France,Martin Faure
420,address420,75419,Paris,France,Martin Faure
421,address421,75420,Paris,France,Martin Faure
422,address422,75421,Paris,France,Martin Faure
423,address423,75422,Paris,France,Martin Faure
424,address424,75423,Paris,France,Martin Faure
425,address425,75424,Paris,France,Martin Faure
426,address426,75425,Paris,France,Martin Faure
427,address427,75426,Paris,France,Martin Faure
428,address428,75427,Paris,France,Martin Faure
429,address429,75428,Paris,France,Martin Faure
430,address430,75429,Paris,France,Martin Faure
431,address431,75430,Paris,France,Martin Faure
432,address432,75431,Paris,France,Martin Faure
433,address433,75432,Paris,France,Martin Faure
434,address434,75433,Paris,France,Martin Faure
435,address435,75434,Paris,France,Martin Faure
436,address436,75435,Paris,France,Martin Faure
437,address437,75436,Paris,France,Martin Faure
438,address438,75437,Paris,France,Martin Faure
439,address439,75438,Paris,France,Martin Faure
440,address440,75439,Paris,France,Martin Faure
441,address441,75440,Paris,France,Martin Faure
442,address442,75441,Paris,France,Martin Faure
443,address443,75442,Paris,France,Martin Faure
444,address444,75443,Paris,France,Martin Faure
445,address445,75444,Paris,France,Martin Faure
446,address446,75445,Paris,France,Martin Faure
447,address447,75446,Paris,France,Martin Faure
448,address448,75447,Paris,France,Martin Faure
449,address449,75448,Paris,France,Martin Faure
450,address450,75449,Paris,France,Martin Faure
451,address451,75450,Paris,France,Martin Faure
452,address452,75451,Paris,France,Martin Faure
453,address453,75452,Paris,France,Martin Faure
454,address454,75453,Paris,France,Martin Faure
455,address455,75454,Paris,France,Martin Faure
456,address456,75455,Paris,France,Martin Faure
457,address457,75456,Paris,France,Martin Faure
458,address458,75457,Paris,France,Martin Faure
459,address459,75458,Paris,France,Martin Faure
460,address460,75459,Paris,France,Martin Faure
461,address461,75460,Paris,France,Martin Faure
462,address462,75461,Paris,France,Martin Faure
463,address463,75462,Paris,France,Martin Faure
464,address464,75463,Paris,France,Martin Faure
465,address465,75464,Paris,France,Martin Faure
466,address466,75465,Paris,France,Martin Faure
467,address467,75466,Paris,France,Martin Faure
468,address468,75467,Paris,France,Martin Faure
469,address469,75468,Paris,France,Martin Faure
470,address470,75469,Paris,France,Martin Faure
471,address471,75470,Paris,France,Martin Faure
472,address472,75471,Paris,France,Martin Faure
473,address473,75472,Paris,France,Martin Faure
474,address474,75473,Paris,France,Martin Faure
475,address475,75474,Paris,France,Martin Faure
476,address476,75475,Paris,France,Martin Faure
477,address477,75476,Paris,France,Martin Faure
478,address478,75477,Paris,France,Martin Faure
479,address479,75478,Paris,France,Martin Faure
480,address480,75479,Paris,France,Martin Faure
481,address481,75480,Paris,France,Martin Faure
482,address482,75481,Paris,France,Martin Faure
483,address483,75482,Paris,France,Martin Faure
484,address484,75483,Paris,France,Martin Faure
485,address485,75484,Paris,France,Martin Faure
486,address486,75485,Paris,France,Martin Faure
487,address487,75486,Paris,France,Martin Faure
488,address488,75487,Paris,France,Martin Faure
489,address489,75488,Paris,France,Martin Faure
490,address490,75489,Paris,France,Martin Faure
491,address491,75490,Paris,France,Martin Faure
492,address492,75491,Paris,France,Martin Faure
493,address493,75492,Paris,France,Martin Faure
494,address494,75493,Paris,France,Martin Faure
495,address495,75494,Paris,France,Martin Faure
496,address496,75495,Paris,France,Martin Faure
497,address497,75496,Paris,France,Martin Faure
498,address498,75497,Paris,France,Martin Faure
499,address499,75498,Paris,France,Martin Faure
500,address500,75499,Paris,France,Martin Faure
501,address501,75500,Paris,France,Martin Faure
502,address502,75501,Paris,France,Martin Faure
503,address503,75502,Paris,France,Martin Faure
504,address504,75503,Paris,France,Martin Faure
505,address505,75504,Paris,France,Martin Faure
506,address506,75505,Paris,France,Martin Faure
507,address507,75506,Paris,France,Martin Faure
508,address508,75507,Paris,France,Martin Faure
509,address509,75508,Paris,France,Martin Faure
510,address510,75509,Paris,France,Martin Faure
511,address511,75510,Paris,France,Martin Faure
512,address512,75511,Paris,France,Martin Faure
513,address513,75512,Paris,France,Martin Faure
514,address514,75513,Paris,France,Martin Faure
515,address515,75514,Paris,France,Martin Faure
516,address516,75515,Paris,France,Martin Faure
517,address517,75516,Paris,France,Martin Faure
518,address518,75517,Paris,France,Martin Faure
519,address519,75518,Paris,France,Martin Faure
520,address520,75519,Paris,France,Martin Faure
521,address521,75520,Paris,France,Martin Faure
522,address522,75521,Paris,France,Martin Faure
523,address523,75522,Paris,France,Martin Faure
524,address524,75523,Paris,France,Martin Faure
525,address525,75524,Paris,France,Martin Faure
526,address526,75525,Paris,France,Martin Faure
527,address527,75526,Paris,France,Martin Faure
528,address528,75527,Paris,France,Martin Faure
529,address529,75528,Paris,France,Martin Faure
530,address530,75529,Paris,France,Martin Faure
531,address531,75530,Paris,France,Martin Faure
532,address532,75531,Paris,France,Martin Faure
533,address533,75532,Paris,France,Martin Faure
534,address534,75533,Paris,France,Martin Faure
535,address535,75534,Paris,France,Martin Faure
536,address536,75535,Paris,France,Martin Faure
537,address537,75536,Paris,France,Martin Faure
538,address538,75537,Paris,France,Martin Faure
539,address539,75538,Paris,France,Martin Faure
540,address540,75539,Paris,France,Martin Faure
541,address541,75540,Paris,France,Martin Faure
542,address542,75541,Paris,France,Martin Faure
543,address543,75542,Paris,France,Martin Faure
544,address544,75543,Paris,France,Martin Faure
545,address545,75544,Paris,France,Martin Faure
546,address546,75545,Paris,France,Martin Faure
547,address547,75546,Paris,France,Martin Faure
548,address548,75547,Paris,France,Martin Faure
549,address549,75548,Paris,France,Martin Faure
550,address550,75549,Paris,France,Martin Faure
551,address551,75550,Paris,France,Martin Faure
552,address552,75551,Paris,France,Martin Faure
553,address553,75552,Paris,France,Martin Faure
554,address554,75553,Paris,France,Martin Faure
555,address555,75554,Paris,France,Martin Faure
556,address556,75555,Paris,France,Martin Faure
557,address557,75556,Paris,France,Martin Faure
558,address558,75557,Paris,France,Martin Faure
559,address559,75558,Paris,France,Martin Faure
560,address560,75559,Paris,France,Martin Faure
561,address561,75560,Paris,France,Martin Faure
562,address562,75561,Paris,France,Martin Faure
563,address563,75562,Paris,France,Martin Faure
564,address564,75563,Paris,France,Martin Faure
565,address565,75564,Paris,France,Martin Faure
566,address566,75565,Paris,France,Martin Faure
567,address567,75566,Paris,France,Martin Faure
568,address568,75567,Paris,France,Martin Faure
569,address569,75568,Paris,France,Martin Faure
570,address570,75569,Paris,France,Martin Faure
571,address571,75570,Paris,France,Martin Faure
572,address572,75571,Paris,France,Martin Faure
573,address573,75572,Paris,France,Martin Faure
574,address574,75573,Paris,France,Martin Faure
575,address575,75574,Paris,France,Martin Faure
576,address576,75575,Paris,France,Martin Faure
577,address577,75576,Paris,France,Martin Faure
578,address578,75577,Paris,France,Martin Faure
579,address579,75578,Paris,France,Martin Faure
580,address580,75579,Paris,France,Martin Faure
581,address581,75580,Paris,France,Martin Faure
582,address582,75581,Paris,France,Martin Faure
583,address583,75582,Paris,France,Martin Faure
584,address584,75583,Paris,France,Martin Faure
585,address585,75584,Paris,France,Martin Faure
586,address586,75585,Paris,France,Martin Faure
587,address587,75586,Paris,France,Martin Faure
588,address588,75587,Paris,France,Martin Faure
589,address589,75588,Paris,France,Martin Faure
590,address590,75589,Paris,France,Martin Faure
591,address591,75590,Paris,France,Martin Faure
592,address592,75591,Paris,France,Martin Faure
593,address593,75592,Paris,France,Martin Faure
594,address594,75593,Paris,France,Martin Faure
595,address595,75594,Paris,France,Martin Faure
596,address596,75595,Paris,France,Martin Faure
597,address597,75596,Paris,France,Martin Faure
598,address598,75597,Paris,France,Martin Faure
599,address599,75598,Paris,France,Martin Faure
600,address600,75599,Paris,France,Martin Faure
601,address601,75600,Paris,France,Martin Faure
602,address602,75601,Paris,France,Martin Faure
603,address603,75602,Paris,France,Martin Faure
604,address604,75603,Paris,France,Martin Faure
605,address605,75604,Paris,France,Martin Faure
606,address606,75605,Paris,France,Martin Faure
607,address607,75606,Paris,France,Martin Faure
608,address608,75607,Paris,France,Martin Faure
609,address609,75608,Paris,France,Martin Faure
610,address610,75609,Paris,France,Martin Faure
611,address611,75610,Paris,France,Martin Faure
612,address612,75611,Paris,France,Martin Faure
613,address613,75612,Paris,France,Martin Faure
614,address614,75613,Paris,France,Martin Faure
615,address615,75614,Paris,France,Martin Faure
616,address616,75615,Paris,France,Martin Faure
617,address617,75616,Paris,France,Martin Faure
618,address618,75617,Paris,France,Martin Faure
619,address619,75618,Paris,France,Martin Faure
620,address620,75619,Paris,France,Martin Faure
621,address621,75620,Paris,France,Martin Faure
622,address622,75621,Paris,France,Martin Faure
623,address623,75622,Paris,France,Martin Faure
624,address624,75623,Paris,France,Martin Faure
625,address625,75624,Paris,France,Martin Faure
626,address626,75625,Paris,France,Martin Faure
627,address627,75626,Paris,France,Martin Faure
628,address628,75627,Paris,France,Martin Faure
629,address629,75628,Paris,France,Martin Faure
630,address630,75629,Paris,France,Martin Faure
631,address631,75630,Paris,France,Martin Faure
632,address632,75631,Paris,France,Martin Faure
633,address633,75632,Paris,France,Martin Faure
634,address634,75633,Paris,France,Martin Faure
635,address635,75634,Paris,France,Martin Faure
636,address636,75635,Paris,France,Martin Faure
637,address637,75636,Paris,France,Martin Faure
638,address638,75637,Paris,France,Martin Faure
639,address639,75638,Paris,France,Martin Faure
640,address640,75639,Paris,France,Martin Faure
641,address641,75640,Paris,France,Martin Faure
642,address642,75641,Paris,France,Martin Faure
643,address643,75642,Paris,France,Martin Faure
644,address644,75643,Paris,France,Martin Faure
645,address645,75644,Paris,France,Martin Faure
646,address646,75645,Paris,France,Martin Faure
647,address647,75646,Paris,France,Martin Faure
648,address648,75647,Paris,France,Martin Faure
649,address649,75648,Paris,France,Martin Faure
650,address650,75649,Paris,France,Martin Faure
651,address651,75650,Paris,France,Martin Faure
652,address652,75651,Paris,France,Martin Faure
653,address653,75652,Paris,France,Martin Faure
654,address654,75653,Paris,France,Martin Faure
655,address655,75654,Paris,France,Martin Faure
656,address656,75655,Paris,France,Martin Faure
657,address657,75656,Paris,France,Martin Faure
658,address658,75657,Paris,France,Martin Faure
659,address659,75658,Paris,France,Martin Faure
660,address660,75659,Paris,France,Martin Faure
661,address661,75660,Paris,France,Martin Faure
662,address662,75661,Paris,France,Martin Faure
663,address663,75662,Paris,France,Martin Faure
664,address664,75663,Paris,France,Martin Faure
665,address665,75664,Paris,France,Martin Faure
666,address666,75665,Paris,France,Martin Faure
667,address667,75666,Paris,France,Martin Faure
668,address668,75667,Paris,France,Martin Faure
669,address669,75668,Paris,France,Martin Faure
670,address670,75669,Paris,France,Martin Faure
671,address671,75670,Paris,France,Martin Faure
672,address672,75671,Paris,France,Martin Faure
673,address673,75672,Paris,France,Martin Faure
674,address674,75673,Paris,France,Martin Faure
675,address675,75674,Paris,France,Martin Faure
676,address676,75675,Paris,France,Martin Faure
677,address677,75676,Paris,France,Martin Faure
678,address678,75677,Paris,France,Martin Faure
679,address679,75678,Paris,France,Martin Faure
680,address680,75679,Paris,France,Martin Faure
681,address681,75680,Paris,France,Martin Faure
682,address682,75681,Paris,France,Martin Faure
683,address683,75682,Paris,France,Martin Faure
684,address684,75683,Paris,France,Martin Faure
685,address685,75684,Paris,France,Martin Faure
686,address686,75685,Paris,France,Martin Faure
687,address687,75686,Paris,France,Martin Faure
688,address688,75687,Paris,France,Martin Faure
689,address689,75688,Paris,France,Martin Faure
690,address690,75689,Paris,France,Martin Faure
691,address691,75690,Paris,France,Martin Faure
692,address692,75691,Paris,France,Martin Faure
693,address693,75692,Paris,France,Martin Faure
694,address694,75693,Paris,France,Martin Faure
695,address695,75694,Paris,France,Martin Faure
696,address696,75695,Paris,France,Martin Faure
697,address697,75696,Paris,France,Martin Faure
698,address698,75697,Paris,France,Martin Faure
699,address699,75698,Paris,France,Martin Faure
700,address700,75699,Paris,France,Martin Faure
701,address701,75700,Paris,France,Martin Faure
702,address702,75701,Paris,France,Martin Faure
703,address703,75702,Paris,France,Martin Faure
704,address704,75703,Paris,France,Martin Faure
705,address705,75704,Paris,France,Martin Faure
706,address706,75705,Paris,France,Martin Faure
707,address707,75706,Paris,France,Martin Faure
708,address708,75707,Paris,France,Martin Faure
709,address709,75708,Paris,France,Martin Faure
710,address710,75709,Paris,France,Martin Faure
711,address711,75710,Paris,France,Martin Faure
712,address712,75711,Paris,France,Martin Faure
713,address713,75712,Paris,France,Martin Faure
714,address714,75713,Paris,France,Martin Faure
715,address715,75714,Paris,France,Martin Faure
716,address716,75715,Paris,France,Martin Faure
717,address717,75716,Paris,France,Martin Faure
718,address718,75717,Paris,France,Martin Faure
719,address719,75718,Paris,France,Martin Faure
720,address720,75719,Paris,France,Martin Faure
721,address721,75720,Paris,France,Martin Faure
722,address722,75721,Paris,France,Martin Faure
723,address723,75722,Paris,France,Martin Faure
724,address724,75723,Paris,France,Martin Faure
725,address725,75724,Paris,France,Martin Faure
726,address726,75725,Paris,France,Martin Faure
727,address727,75726,Paris,France,Martin Faure
728,address728,75727,Paris,France,Martin Faure
729,address729,75728,Paris,France,Martin Faure
730,address730,75729,Paris,France,Martin Faure
731,address731,75730,Paris,France,Martin Faure
732,address732,75731,Paris,France,Martin Faure
733,address733,75732,Paris,France,Martin Faure
734,address734,75733,Paris,France,Martin Faure
735,address735,75734,Paris,France,Martin Faure
736,address736,75735,Paris,France,Martin Faure
737,address737,75736,Paris,France,Martin Faure
738,address738,75737,Paris,France,Martin Faure
739,address739,75738,Paris,France,Martin Faure
740,address740,75739,Paris,France,Martin Faure
741,address741,75740,Paris,France,Martin Faure
742,address742,75741,Paris,France,Martin Faure
743,address743,75742,Paris,France,Martin Faure
744,address744,75743,Paris,France,Martin Faure
745,address745,75744,Paris,France,Martin Faure
746,address746,75745,Paris,France,Martin Faure
747,address747,75746,Paris,France,Martin Faure
748,address748,75747,Paris,France,Martin Faure
749,address749,75748,Paris,France,Martin Faure
750,address750,75749,Paris,France,Martin Faure
751,address751,75750,Paris,France,Martin Faure
752,address752,75751,Paris,France,Martin Faure
753,address753,75752,Paris,France,Martin Faure
754,address754,75753,Paris,France,Martin Faure
755,address755,75754,Paris,France,Martin Faure
756,address756,75755,Paris,France,Martin Faure
757,address757,75756,Paris,France,Martin Faure
758,address758,75757,Paris,France,Martin Faure
759,address759,75758,Paris,France,Martin Faure
760,address760,75759,Paris,France,Martin Faure
761,address761,75760,Paris,France,Martin Faure
762,address762,75761,Paris,France,Martin Faure
763,address763,75762,Paris,France,Martin Faure
764,address764,75763,Paris,France,Martin Faure
765,address765,75764,Paris,France,Martin Faure
766,address766,75765,Paris,France,Martin Faure
767,address767,75766,Paris,France,Martin Faure
768,address768,75767,Paris,France,Martin Faure
769,address769,75768,Paris,France,Martin Faure
770,address770,75769,Paris,France,Martin Faure
771,address771,75770,Paris,France,Martin Faure
772,address772,75771,Paris,France,Martin Faure
773,address773,75772,Paris,France,Martin Faure
774,address774,75773,Paris,France,Martin Faure
775,address775,75774,Paris,France,Martin Faure
776,address776,75775,Paris,France,Martin Faure
777,address777,75776,Paris,France,Martin Faure
778,address778,75777,Paris,France,Martin Faure
779,address779,75778,Paris,France,Martin Faure
780,address780,75779,Paris,France,Martin Faure
781,address781,75780,Paris,France,Martin Faure
782,address782,75781,Paris,France,Martin Faure
783,address783,75782,Paris,France,Martin Faure
784,address784,75783,Paris,France,Martin Faure
785,address785,75784,Paris,France,Martin Faure
786,address786,75785,Paris,France,Martin Faure
787,address787,75786,Paris,France,Martin Faure
788,address788,75787,Paris,France,Martin Faure
789,address789,75788,Paris,France,Martin Faure
790,address790,75789,Paris,France,Martin Faure
791,address791,75790,Paris,France,Martin Faure
792,address792,75791,Paris,France,Martin Faure
793,address793,75792,Paris,France,Martin Faure
794,address794,75793,Paris,France,Martin Faure
795,address795,75794,Paris,France,Martin Faure
796,address796,75795,Paris,France,Martin Faure
797,address797,75796,Paris,France,Martin Faure
798,address798,75797,Paris,France,Martin Faure
799,address799,75798,Paris,France,Martin Faure
800,address800,75799,Paris,France,Martin Faure
801,address801,75800,Paris,France,Martin Faure
802,address802,75801,Paris,France,Martin Faure
803,address803,75802,Paris,France,Martin Faure
804,address804,75803,Paris,France,Martin Faure
805,address805,75804,Paris,France,Martin Faure
806,address806,75805,Paris,France,Martin Faure
807,address807,75806,Paris,France,Martin Faure
808,address808,75807,Paris,France,Martin Faure
809,address809,75808,Paris,France,Martin Faure
810,address810,75809,Paris,France,Martin Faure
811,address811,75810,Paris,France,Martin Faure
812,address812,75811,Paris,France,Martin Faure
813,address813,75812,Paris,France,Martin Faure
814,address814,75813,Paris,France,Martin Faure
815,address815,75814,Paris,France,Martin Faure
816,address816,75815,Paris,France,Martin Faure
817,address817,75816,Paris,France,Martin Faure
818,address818,75817,Paris,France,Martin Faure
819,address819,75818,Paris,France,Martin Faure
820,address820,75819,Paris,France,Martin Faure
821,address821,75820,Paris,France,Martin Faure
822,address822,75821,Paris,France,Martin Faure
823,address823,75822,Paris,France,Martin Faure
824,address824,75823,Paris,France,Martin Faure
825,address825,75824,Paris,France,Martin Faure
826,address826,75825,Paris,France,Martin Faure
827,address827,75826,Paris,France,Martin Faure
828,address828,75827,Paris,France,Martin Faure
829,address829,75828,Paris,France,Martin Faure
830,address830,75829,Paris,France,Martin Faure
831,address831,75830,Paris,France,Martin Faure
832,address832,75831,Paris,France,Martin Faure
833,address833,75832,Paris,France,Martin Faure
834,address834,75833,Paris,France,Martin Faure
835,address835,75834,Paris,France,Martin Faure
836,address836,75835,Paris,France,Martin Faure
837,address837,75836,Paris,France,Martin Faure
838,address838,75837,Paris,France,Martin Faure
839,address839,75838,Paris,France,Martin Faure
840,address840,75839,Paris,France,Martin Faure
841,address841,75840,Paris,France,Martin Faure
842,address842,75841,Paris,France,Martin Faure
843,address843,75842,Paris,France,Martin Faure
844,address844,75843,Paris,France,Martin Faure
845,address845,75844,Paris,France,Martin Faure
846,address846,75845,Paris,France,Martin Faure
847,address847,75846,Paris,France,Martin Faure
848,address848,75847,Paris,France,Martin Faure
849,address849,75848,Paris,France,Martin Faure
850,address850,75849,Paris,France,Martin Faure
851,address851,75850,Paris,France,Martin Faure
852,address852,75851,Paris,France,Martin Faure
853,address853,75852,Paris,France,Martin Faure
854,address854,75853,Paris,France,Martin Faure
855,address855,75854,Paris,France,Martin Faure
856,address856,75855,Paris,France,Martin Faure
857,address857,75856,Paris,France,Martin Faure
858,address858,75857,Paris,France,Martin Faure
859,address859,75858,Paris,France,Martin Faure
860,address860,75859,Paris,France,Martin Faure
861,address861,75860,Paris,France,Martin Faure
862,address862,75861,Paris,France,Martin Faure
863,address863,75862,Paris,France,Martin Faure
864,address864,75863,Paris,France,Martin Faure
865,address865,75864,Paris,France,Martin Faure
866,address866,75865,Paris,France,Martin Faure
867,address867,75866,Paris,France,Martin Faure
868,address868,75867,Paris,France,Martin Faure
869,address869,75868,Paris,France,Martin Faure
870,address870,75869,Paris,France,Martin Faure
871,address871,75870,Paris,France,Martin Faure
872,address872,75871,Paris,France,Martin Faure
873,address873,75872,Paris,France,Martin Faure
874,address874,75873,Paris,France,Martin Faure
875,address875,75874,Paris,France,Martin Faure
876,address876,75875,Paris,France,Martin Faure
877,address877,75876,Paris,France,Martin Faure
878,address878,75877,Paris,France,Martin Faure
879,address879,75878,Paris,France,Martin Faure
880,address880,75879,Paris,France,Martin Faure
881,address881,75880,Paris,France,Martin Faure
882,address882,75881,Paris,France,Martin Faure
883,address883,75882,Paris,France,Martin Faure
884,address884,75883,Paris,France,Martin Faure
885,address885,75884,Paris,France,Martin Faure
886,address886,75885,Paris,France,Martin Faure
887,address887,75886,Paris,France,Martin Faure
888,address888,75887,Paris,France,Martin Faure
889,address889,75888,Paris,France,Martin Faure
890,address890,75889,Paris,France,Martin Faure
891,address891,75890,Paris,France,Martin Faure
892,address892,75891,Paris,France,Martin Faure
893,address893,75892,Paris,France,Martin Faure
894,address894,75893,Paris,France,Martin Faure
895,address895,75894,Paris,France,Martin Faure
896,address896,75895,Paris,France,Martin Faure
897,address897,75896,Paris,France,Martin Faure
898,address898,75897,Paris,France,Martin Faure
899,address899,75898,Paris,France,Martin Faure
900,address900,75899,Paris,France,Martin Faure
901,address901,75900,Paris,France,Martin Faure
902,address902,75901,Paris,France,Martin Faure
903,address903,75902,Paris,France,Martin Faure
904,address904,75903,Paris,France,Martin Faure
905,address905,75904,Paris,France,Martin Faure
906,address906,75905,Paris,France,Martin Faure
907,address907,75906,Paris,France,Martin Faure
908,address908,75907,Paris,France,Martin Faure
909,address909,75908,Paris,France,Martin Faure
910,address910,75909,Paris,France,Martin Faure
911,address911,75910,Paris,France,Martin Faure
912,address912,75911,Paris,France,Martin Faure
913,address913,75912,Paris,France,Martin Faure
914,address914,75913,Paris,France,Martin Faure
915,address915,75914,Paris,France,Martin Faure
916,address916,75915,Paris,France,Martin Faure
917,address917,75916,Paris,France,Martin Faure
918,address918,75917,Paris,France,Martin Faure
919,address919,75918,Paris,France,Martin Faure
920,address920,75919,Paris,France,Martin Faure
921,address921,75920,Paris,France,Martin Faure
922,address922,75921,Paris,France,Martin Faure
923,address923,75922,Paris,France,Martin Faure
924,address924,75923,Paris,France,Martin Faure
925,address925,75924,Paris,France,Martin Faure
926,address926,75925,Paris,France,Martin Faure
927,address927,75926,Paris,France,Martin Faure
928,address928,75927,Paris,France,Martin Faure
929,address929,75928,Paris,France,Martin Faure
930,address930,75929,Paris,France,Martin Faure
931,address931,75930,Paris,France,Martin Faure
932,address932,75931,Paris,France,Martin Faure
933,address933,75932,Paris,France,Martin Faure
934,address934,75933,Paris,France,Martin Faure
935,address935,75934,Paris,France,Martin Faure
936,address936,75935,Paris,France,Martin Faure
937,address937,75936,Paris,France,Martin Faure
938,address938,75937,Paris,France,Martin Faure
939,address939,75938,Paris,France,Martin Faure
940,address940,75939,Paris,France,Martin Faure
941,address941,75940,Paris,France,Martin Faure
942,address942,75941,Paris,France,Martin Faure
943,address943,75942,Paris,France,Martin Faure
944,address944,75943,Paris,France,Martin Faure
945,address945,75944,Paris,France,Martin Faure
946,address946,75945,Paris,France,Martin Faure
947,address947,75946,Paris,France,Martin Faure
948,address948,75947,Paris,France,Martin Faure
949,address949,75948,Paris,France,Martin Faure
950,address950,75949,Paris,France,Martin Faure
951,address951,75950,Paris,France,Martin Faure
952,address952,75951,Paris,France,Martin Faure
953,address953,75952,Paris,France,Martin Faure
954,address954,75953,Paris,France,Martin Faure
955,address955,75954,Paris,France,Martin Faure
956,address956,75955,Paris,France,Martin Faure
957,address957,75956,Paris,France,Martin Faure
958,address958,75957,Paris,France,Martin Faure
959,address959,75958,Paris,France,Martin Faure
960,address960,75959,Paris,France,Martin Faure
961,address961,75960,Paris,France,Martin Faure
962,address962,75961,Paris,France,Martin Faure
963,address963,75962,Paris,France,Martin Faure
964,address964,75963,Paris,France,Martin Faure
965,address965,75964,Paris,France,Martin Faure
966,address966,75965,Paris,France,Martin Faure
967,address967,75966,Paris,France,Martin Faure
968,address968,75967,Paris,France,Martin Faure
969,address969,75968,Paris,France,Martin Faure
970,address970,75969,Paris,France,Martin Faure
971,address971,75970,Paris,France,Martin Faure
972,address972,75971,Paris,France,Martin Faure
973,address973,75972,Paris,France,Martin Faure
974,address974,75973,Paris,France,Martin Faure
975,address975,75974,Paris,France,Martin Faure
976,address976,75975,Paris,France,Martin Faure
977,address977,75976,Paris,France,Martin Faure
978,address978,75977,Paris,France,Martin Faure
979,address979,75978,Paris,France,Martin Faure
980,address980,75979,Paris,France,Martin Faure
981,address981,75980,Paris,France,Martin Faure
982,address982,75981,Paris,France,Martin Faure
983,address983,75982,Paris,France,Martin Faure
984,address984,75983,Paris,France,Martin Faure
985,address985,75984,Paris,France,Martin Faure
986,address986,75985,Paris,France,Martin Faure
987,address987,75986,Paris,France,Martin Faure
988,address988,75987,Paris,France,Martin Faure
989,address989,75988,Paris,France,Martin Faure
990,address990,75989,Paris,France,Martin Faure
991,address991,75990,Paris,France,Martin Faure
992,address992,75991,Paris,France,Martin Faure
993,address993,75992,Paris,France,Martin Faure
994,address994,75993,Paris,France,Martin Faure
995,address995,75994,Paris,France,Martin Faure
996,address996,75995,Paris,France,Martin Faure
997,address997,75996,Paris,France,Martin Faure
998,address998,75997,Paris,France,Martin Faure
999,address999,75998,Paris,France,Martin Faure
1000,address1000,75999,Paris,France,Martin Faure
